{"type": "FeatureCollection", "features": [ {"type": "Feature", "properties": {"norad_id": 30145, "name": "FENGYUN 1C DEB", "group": "fengyun-1c-debris", "lat": 56.491985659993446, "lon": 71.21106081262435, "alt_km": 873.3859524723212, "timestamp": "2025-12-02T07:10:09.389637+00:00", "meta": {"OBJECT_NAME": "FENGYUN 1C DEB", "OBJECT_ID": "1999-025TA", "EPOCH": "2025-12-01T07:13:56.265888", "MEAN_MOTION": 14.13802835, "ECCENTRICITY": 0.00927604, "INCLINATION": 99.2702, "RA_OF_ASC_NODE": 84.4587, "ARG_OF_PERICENTER": 179.9923, "MEAN_ANOMALY": 205.094, "EPHEMERIS_TYPE": 0, "CLASSIFICATION_TYPE": "U", "NORAD_CAT_ID": 30145, "ELEMENT_SET_NO": 999, "REV_AT_EPOCH": 96034, "BSTAR": 0.0037153348, "MEAN_MOTION_DOT": 7.287e-05, "MEAN_MOTION_DDOT": 0}, "tle": {"line1": "1 30145U 99025TA  25335.30134567  .00007287  00000+0  37153-2 0  9999", "line2": "2 30145  99.2702  84.4587 0092760 179.9923 205.0940 14.13802835960341"}}, "geometry": {"type": "Point", "coordinates": [71.21106081262435, 56.491985659993446]}}, {"type": "Feature", "properties": {"norad_id": 30146, "name": "FENGYUN 1C DEB", "group": "fengyun-1c-debris", "lat": -26.424331794872735, "lon": 141.41503463818125, "alt_km": 1077.0812377775783, "timestamp": "2025-12-02T07:10:09.389647+00:00", "meta": {"OBJECT_NAME": "FENGYUN 1C DEB", "OBJECT_ID": "1999-025TB", "EPOCH": "2025-12-01T19:44:10.206240", "MEAN_MOTION": 13.86568367, "ECCENTRICITY": 0.0178725, "INCLINATION": 98.02, "RA_OF_ASC_NODE": 136.9888, "ARG_OF_PERICENTER": 153.1118, "MEAN_ANOMALY": 323.7534, "EPHEMERIS_TYPE": 0, "CLASSIFICATION_TYPE": "U", "NORAD_CAT_ID": 30146, "ELEMENT_SET_NO": 999, "REV_AT_EPOCH": 95266, "BSTAR": 0.00076687, "MEAN_MOTION_DOT": 9.77e-06, "MEAN_MOTION_DDOT": 0}, "tle": {"line1": "1 30146U 99025TB  25335.82234035  .00000977  00000+0  76687-3 0  9993", "line2": "2 30146  98.0200 136.9888 0178725 153.1118 323.7534 13.86568367952666"}}, "geometry": {"type": "Point", "coordinates": [141.41503463818125, -26.424331794872735]}}, {"type": "Feature", "properties": {"norad_id": 30148, "name": "FENGYUN 1C DEB", "group": "fengyun-1c-debris", "lat": -69.63825377612109, "lon": 152.31824600892094, "alt_km": 896.5622944693741, "timestamp": "2025-12-02T07:10:09.389657+00:00", "meta": {"OBJECT_NAME": "FENGYUN 1C DEB", "OBJECT_ID": "1999-025TD", "EPOCH": "2025-12-01T16:01:02.457120", "MEAN_MOTION": 13.88446113, "ECCENTRICITY": 0.0134763, "INCLINATION": 99.5452, "RA_OF_ASC_NODE": 124.7131, "ARG_OF_PERICENTER": 226.0889, "MEAN_ANOMALY": 146.6748, "EPHEMERIS_TYPE": 0, "CLASSIFICATION_TYPE": "U", "NORAD_CAT_ID": 30148, "ELEMENT_SET_NO": 999, "REV_AT_EPOCH": 95363, "BSTAR": 0.00094711751, "MEAN_MOTION_DOT": 1.175e-05, "MEAN_MOTION_DDOT": 0}, "tle": {"line1": "1 30148U 99025TD  25335.66738955  .00001175  00000+0  94712-3 0  9997", "line2": "2 30148  99.5452 124.7131 0134763 226.0889 146.6748 13.88446113953631"}}, "geometry": {"type": "Point", "coordinates": [152.31824600892094, -69.63825377612109]}}, {"type": "Feature", "properties": {"norad_id": 30150, "name": "FENGYUN 1C DEB", "group": "fengyun-1c-debris", "lat": 43.098369875661284, "lon": -58.789245846843244, "alt_km": 1007.5102928615906, "timestamp": "2025-12-02T07:10:09.389668+00:00", "meta": {"OBJECT_NAME": "FENGYUN 1C DEB", "OBJECT_ID": "1999-025TF", "EPOCH": "2025-12-01T20:45:21.668832", "MEAN_MOTION": 13.86573507, "ECCENTRICITY": 0.014676, "INCLINATION": 98.9941, "RA_OF_ASC_NODE": 112.2711, "ARG_OF_PERICENTER": 5.6778, "MEAN_ANOMALY": 124.5693, "EPHEMERIS_TYPE": 0, "CLASSIFICATION_TYPE": "U", "NORAD_CAT_ID": 30150, "ELEMENT_SET_NO": 999, "REV_AT_EPOCH": 95307, "BSTAR": 0.00051548, "MEAN_MOTION_DOT": 6.09e-06, "MEAN_MOTION_DDOT": 0}, "tle": {"line1": "1 30150U 99025TF  25335.86483413  .00000609  00000+0  51548-3 0  9999", "line2": "2 30150  98.9941 112.2711 0146760   5.6778 124.5693 13.86573507953072"}}, "geometry": {"type": "Point", "coordinates": [-58.789245846843244, 43.098369875661284]}}, {"type": "Feature", "properties": {"norad_id": 30151, "name": "FENGYUN 1C DEB", "group": "fengyun-1c-debris", "lat": 17.980515233912524, "lon": -18.335768037012468, "alt_km": 908.4357589036144, "timestamp": "2025-12-02T07:10:09.389678+00:00", "meta": {"OBJECT_NAME": "FENGYUN 1C DEB", "OBJECT_ID": "1999-025TG", "EPOCH": "2025-12-01T12:36:31.773600", "MEAN_MOTION": 13.84445257, "ECCENTRICITY": 0.01632945, "INCLINATION": 99.0637, "RA_OF_ASC_NODE": 343.8871, "ARG_OF_PERICENTER": 309.0357, "MEAN_ANOMALY": 175.2085, "EPHEMERIS_TYPE": 0, "CLASSIFICATION_TYPE": "U", "NORAD_CAT_ID": 30151, "ELEMENT_SET_NO": 999, "REV_AT_EPOCH": 95090, "BSTAR": 0.00081762981, "MEAN_MOTION_DOT": 9.72e-06, "MEAN_MOTION_DDOT": 0}, "tle": {"line1": "1 30151U 99025TG  25335.52536775  .00000972  00000+0  81763-3 0  9998", "line2": "2 30151  99.0637 343.8871 0163294 309.0357 175.2085 13.84445257950906"}}, "geometry": {"type": "Point", "coordinates": [-18.335768037012468, 17.980515233912524]}}, {"type": "Feature", "properties": {"norad_id": 30152, "name": "FENGYUN 1C DEB", "group": "fengyun-1c-debris", "lat": 39.66014253624751, "lon": -173.44043460742697, "alt_km": 868.1696498058191, "timestamp": "2025-12-02T07:10:09.389688+00:00", "meta": {"OBJECT_NAME": "FENGYUN 1C DEB", "OBJECT_ID": "1999-025TH", "EPOCH": "2025-12-01T13:46:56.432928", "MEAN_MOTION": 13.96570922, "ECCENTRICITY": 0.01608788, "INCLINATION": 99.081, "RA_OF_ASC_NODE": 193.4638, "ARG_OF_PERICENTER": 116.1625, "MEAN_ANOMALY": 245.6184, "EPHEMERIS_TYPE": 0, "CLASSIFICATION_TYPE": "U", "NORAD_CAT_ID": 30152, "ELEMENT_SET_NO": 999, "REV_AT_EPOCH": 95222, "BSTAR": 0.0022316852, "MEAN_MOTION_DOT": 3.403e-05, "MEAN_MOTION_DDOT": 0}, "tle": {"line1": "1 30152U 99025TH  25335.57426427  .00003403  00000+0  22317-2 0  9997", "line2": "2 30152  99.0810 193.4638 0160878 116.1625 245.6184 13.96570922952220"}}, "geometry": {"type": "Point", "coordinates": [-173.44043460742697, 39.66014253624751]}}, {"type": "Feature", "properties": {"norad_id": 30153, "name": "FENGYUN 1C DEB", "group": "fengyun-1c-debris", "lat": -13.456637090233695, "lon": -31.86011477252662, "alt_km": 868.0688512243078, "timestamp": "2025-12-02T07:10:09.389697+00:00", "meta": {"OBJECT_NAME": "FENGYUN 1C DEB", "OBJECT_ID": "1999-025TJ", "EPOCH": "2025-12-01T12:39:10.491264", "MEAN_MOTION": 13.78721017, "ECCENTRICITY": 0.02009658, "INCLINATION": 100.4662, "RA_OF_ASC_NODE": 324.754, "ARG_OF_PERICENTER": 34.0296, "MEAN_ANOMALY": 86.6472, "EPHEMERIS_TYPE": 0, "CLASSIFICATION_TYPE": "U", "NORAD_CAT_ID": 30153, "ELEMENT_SET_NO": 999, "REV_AT_EPOCH": 94620, "BSTAR": 0.0011422664, "MEAN_MOTION_DOT": 1.297e-05, "MEAN_MOTION_DDOT": 0}, "tle": {"line1": "1 30153U 99025TJ  25335.52720476  .00001297  00000+0  11423-2 0  9999", "line2": "2 30153 100.4662 324.7540 0200965  34.0296  86.6472 13.78721017946205"}}, "geometry": {"type": "Point", "coordinates": [-31.86011477252662, -13.456637090233695]}}, {"type": "Feature", "properties": {"norad_id": 30154, "name": "FENGYUN 1C DEB", "group": "fengyun-1c-debris", "lat": -28.90469093144361, "lon": 23.803880818326487, "alt_km": 978.0280592984245, "timestamp": "2025-12-02T07:10:09.389707+00:00", "meta": {"OBJECT_NAME": "FENGYUN 1C DEB", "OBJECT_ID": "1999-025TK", "EPOCH": "2025-12-01T16:21:28.646784", "MEAN_MOTION": 13.8591991, "ECCENTRICITY": 0.0182448, "INCLINATION": 98.4506, "RA_OF_ASC_NODE": 18.5384, "ARG_OF_PERICENTER": 228.8666, "MEAN_ANOMALY": 262.544, "EPHEMERIS_TYPE": 0, "CLASSIFICATION_TYPE": "U", "NORAD_CAT_ID": 30154, "ELEMENT_SET_NO": 999, "REV_AT_EPOCH": 94831, "BSTAR": 0.0015706, "MEAN_MOTION_DOT": 2.017e-05, "MEAN_MOTION_DDOT": 0}, "tle": {"line1": "1 30154U 99025TK  25335.68158156  .00002017  00000+0  15706-2 0  9996", "line2": "2 30154  98.4506  18.5384 0182448 228.8666 262.5440 13.85919910948315"}}, "geometry": {"type": "Point", "coordinates": [23.803880818326487, -28.90469093144361]}}, {"type": "Feature", "properties": {"norad_id": 30155, "name": "FENGYUN 1C DEB", "group": "fengyun-1c-debris", "lat": -75.17785900494418, "lon": 90.14520220680438, "alt_km": 988.3674992693841, "timestamp": "2025-12-02T07:10:09.389717+00:00", "meta": {"OBJECT_NAME": "FENGYUN 1C DEB", "OBJECT_ID": "1999-025TL", "EPOCH": "2025-12-01T01:49:35.364864", "MEAN_MOTION": 13.73733949, "ECCENTRICITY": 0.02420128, "INCLINATION": 99.7525, "RA_OF_ASC_NODE": 48.3634, "ARG_OF_PERICENTER": 14.1483, "MEAN_ANOMALY": 346.6289, "EPHEMERIS_TYPE": 0, "CLASSIFICATION_TYPE": "U", "NORAD_CAT_ID": 30155, "ELEMENT_SET_NO": 999, "REV_AT_EPOCH": 93704, "BSTAR": 0.0019641312, "MEAN_MOTION_DOT": 2.221e-05, "MEAN_MOTION_DDOT": 0}, "tle": {"line1": "1 30155U 99025TL  25335.07610376  .00002221  00000+0  19641-2 0  9996", "line2": "2 30155  99.7525  48.3634 0242012  14.1483 346.6289 13.73733949937043"}}, "geometry": {"type": "Point", "coordinates": [90.14520220680438, -75.17785900494418]}}, {"type": "Feature", "properties": {"norad_id": 30156, "name": "FENGYUN 1C DEB", "group": "fengyun-1c-debris", "lat": -79.93267630740777, "lon": 6.041670708442018, "alt_km": 827.2018578396974, "timestamp": "2025-12-02T07:10:09.389728+00:00", "meta": {"OBJECT_NAME": "FENGYUN 1C DEB", "OBJECT_ID": "1999-025TM", "EPOCH": "2025-12-01T19:42:48.952224", "MEAN_MOTION": 13.80746009, "ECCENTRICITY": 0.0200284, "INCLINATION": 98.9172, "RA_OF_ASC_NODE": 303.4239, "ARG_OF_PERICENTER": 292.2507, "MEAN_ANOMALY": 131.7475, "EPHEMERIS_TYPE": 0, "CLASSIFICATION_TYPE": "U", "NORAD_CAT_ID": 30156, "ELEMENT_SET_NO": 999, "REV_AT_EPOCH": 94540, "BSTAR": 0.0017819, "MEAN_MOTION_DOT": 2.138e-05, "MEAN_MOTION_DDOT": 0}, "tle": {"line1": "1 30156U 99025TM  25335.82139991  .00002138  00000+0  17819-2 0  9991", "line2": "2 30156  98.9172 303.4239 0200284 292.2507 131.7475 13.80746009945408"}}, "geometry": {"type": "Point", "coordinates": [6.041670708442018, -79.93267630740777]}}]}